CCSDS_OMM_VERS,COMMENT,CREATION_DATE,ORIGINATOR,OBJECT_NAME,OBJECT_ID,CENTER_NAME,REF_FRAME,TIME_SYSTEM,MEAN_ELEMENT_THEORY,EPOCH,MEAN_MOTION,ECCENTRICITY,INCLINATION,RA_OF_ASC_NODE,ARG_OF_PERICENTER,MEAN_ANOMALY,EPHEMERIS_TYPE,CLASSIFICATION_TYPE,NORAD_CAT_ID,ELEMENT_SET_NO,REV_AT_EPOCH,BSTAR,MEAN_MOTION_DOT,MEAN_MOTION_DDOT,SEMIMAJOR_AXIS,PERIOD,APOAPSIS,PERIAPSIS,OBJECT_TYPE,RCS_SIZE,COUNTRY_CODE,LAUNCH_DATE,SITE,DECAY_DATE,FILE,GP_ID,TLE_LINE0,TLE_LINE1,TLE_LINE2
3.0,GENERATED VIA SPACE-TRACK.ORG API,2023-07-24T19:17:50,18 SPCS,FALCON 9 DEB,2023-083BG,EARTH,TEME,UTC,SGP4,2023-07-22T10:40:44.671008,16.4115767,0.000333,42.9921,253.1993,307.4182,52.6408,0,U,56930,999,720,0.00054526,0.08888613,9.3658e-06,6540.862,87.743,164.905,160.549,DEBRIS,MEDIUM,US,2023-06-12,AFETR,2023-07-25,3963756,235076080,0 FALCON 9 DEB,1 56930U 23083BG  23203.44496147  .08888613  93658-5  54526-3 0  9991,2 56930  42.9921 253.1993 0003330 307.4182  52.6408 16.41157670  7200
3.0,GENERATED VIA SPACE-TRACK.ORG API,2005-04-22T16:12:26,18 SPCS,SL-4 R/B,1972-015B,EARTH,TEME,UTC,SGP4,1972-03-21T09:34:59.304863,16.38025432,0.000851,65.3785,325.2407,76.973,283.2359,0,U,5886,999,95,0.0,0.06987628,0.0,6549.201,87.91,176.639,165.493,ROCKET BODY,,,,,1972-03-21,128520,41832519,0 SL-4 R/B,1 05886U 72015  B 72081.39929751  .06987628 +00000-0 +00000-0 0  9991,2 05886 065.3785 325.2407 0008510 076.9730 283.2359 16.38025432000952
3.0,GENERATED VIA SPACE-TRACK.ORG API,2004-08-16T23:16:14,18 SPCS,OPS 7613 DEB,1969-082DS,EARTH,TEME,UTC,SGP4,1983-05-24T14:42:50.951808,15.84244738,0.0025264,69.8862,211.4059,312.341,46.8372,0,U,4312,999,70649,0.019378,0.04502925,0.0,6696.593,90.895,335.376,301.54,DEBRIS,SMALL,US,1969-09-30,AFWTR,1983-05-26,34351,13095126,0 OPS 7613 DEB,1 04312U 69082 DS 83144.61308972  .04502925 +00000-0 +19378-1 0  9997,2 04312 069.8862 211.4059 0025264 312.3410 046.8372 15.84244738706498
3.0,GENERATED VIA SPACE-TRACK.ORG API,2004-05-27T14:38:51,18 SPCS,SL-4 R/B,2001-041B,EARTH,TEME,UTC,SGP4,2001-09-15T22:51:54.530207,16.44013185,0.0001428,51.6131,352.2183,254.4734,105.7645,0,U,26909,999,16,0.00070253,0.1715697,1.2504e-05,6533.289,87.59,156.087,154.221,ROCKET BODY,LARGE,CIS,2001-09-14,TTMTR,2001-09-16,6133,1068791,0 SL-4 R/B,1 26909U 01041B   01258.95271447 +.17156970 +12504-4 +70253-3 0  9999,2 26909 051.6131 352.2183 0001428 254.4734 105.7645 16.44013185000161
3.0,GENERATED VIA SPACE-TRACK.ORG API,2004-08-15T23:35:23,18 SPCS,SPUTNIK 3,1958-004B,EARTH,TEME,UTC,SGP4,1960-04-04T03:52:47.964864,16.28328133,0.0088318,65.0599,163.5585,135.676,224.6847,0,U,8,999,10000,0.0,0.0260709,0.0,6575.177,88.434,255.113,138.972,PAYLOAD,,,,,1960-04-06,33906,8671641,0 SPUTNIK 3,1 00008U 58004  B 60095.16166626  .02607090 +00000-0 +00000-0 0  9993,2 00008 065.0599 163.5585 0088318 135.6760 224.6847 16.28328133100004
3.0,GENERATED VIA SPACE-TRACK.ORG API,2024-08-07T11:16:14,18 SPCS,STARLINK-1340,2020-025BE,EARTH,TEME,UTC,SGP4,2024-08-07T06:07:14.078784,16.23207736,0.0008872,53.0298,90.2595,243.6436,224.342,0,U,45583,999,23851,0.0042994,0.1114165,1.1843e-05,6588.994,88.713,216.705,205.013,PAYLOAD,LARGE,US,2020-04-22,AFETR,2024-08-07,4421371,264364817,0 STARLINK-1340,1 45583U 20025BE  24220.25502406  .11141650  11843-4  42994-2 0  9998,2 45583  53.0298  90.2595 0008872 243.6436 224.3420 16.23207736238510
3.0,GENERATED VIA SPACE-TRACK.ORG API,2004-08-16T23:16:38,18 SPCS,COSMOS 1311 DEB,1981-097AA,EARTH,TEME,UTC,SGP4,1983-02-23T13:22:16.159872,15.75803566,0.0020417,82.8802,215.058,299.0988,60.7092,0,U,13831,999,7898,8.718e-05,0.01376528,0.0,6720.486,91.381,356.073,328.63,DEBRIS,MEDIUM,CIS,1981-09-28,PKMTR,1983-02-28,34359,13439456,0 COSMOS 1311 DEB,1 13831U 81097 AA 83054.55713148  .01376528 +00000-0 +08718-3 0  9994,2 13831 082.8802 215.0580 0020417 299.0988 060.7092 15.75803566078988
3.0,GENERATED VIA SPACE-TRACK.ORG API,2004-08-17T14:45:51,18 SPCS,COSMOS 970 DEB,1977-121BT,EARTH,TEME,UTC,SGP4,1991-09-13T19:41:20.838912,15.89679983,0.0045568,65.6217,47.6812,314.6107,45.0009,0,U,19393,999,16946,0.018141,-0.00350401,0.059208,6681.32,90.584,333.631,272.74,DEBRIS,SMALL,CIS,1977-12-21,TTMTR,1991-09-15,34766,18391535,0 COSMOS 970 DEB,1 19393U 77121 BT 91256.82038008 -.00350401 +59208-1 +18141-1 0  9990,2 19393 065.6217 047.6812 0045568 314.6107 045.0009 15.89679983169461
3.0,GENERATED VIA SPACE-TRACK.ORG API,2020-02-22T09:36:13,18 SPCS,ELECTRON R/B,2020-007C,EARTH,TEME,UTC,SGP4,2020-02-22T07:55:43.363200,16.44080468,0.003362,69.9568,91.5449,210.3396,150.4152,0,U,45112,999,60,0.00027488,0.15942269,3.9088e-06,6533.107,87.586,176.936,133.008,ROCKET BODY,,US,2020-01-31,RLLC,2020-02-22,2707826,149273189,0 ELECTRON R/B,1 45112U 20007C   20053.33036300  .15942269  39088-5  27488-3 0  9993,2 45112  69.9568  91.5449 0033620 210.3396 150.4152 16.44080468   603
3.0,GENERATED VIA SPACE-TRACK.ORG API,2015-02-22T22:59:37,18 SPCS,SL-24 R/B,2006-029B,EARTH,TEME,UTC,SGP4,2015-02-22T21:56:12.903072,16.51315554,0.0001772,64.4291,330.1215,231.3415,130.3064,0,U,29253,999,47748,0.00034968,0.36484545,8.3448e-06,6514.01,87.203,137.029,134.721,ROCKET BODY,LARGE,CIS,2006-07-12,OREN,2015-02-23,1830456,98416157,0 SL-24 R/B,1 29253U 06029B   15053.91403823  .36484545  83448-5  34968-3 0  9996,2 29253 064.4291 330.1215 0001772 231.3415 130.3064 16.51315554477483
3.0,GENERATED VIA SPACE-TRACK.ORG API,2013-10-17T11:27:12,18 SPCS,FALCON 9 DEB,2013-055H,EARTH,TEME,UTC,SGP4,2013-10-16T09:08:34.842047,16.09920126,0.0089709,81.0206,296.2363,96.5198,267.4206,0,U,39272,999,249,0.030604,0.52876323,-1.0743e-06,6625.203,89.445,306.502,187.634,DEBRIS,MEDIUM,US,2013-09-29,AFWTR,2013-10-16,1565059,94098547,0 FALCON 9 DEB,1 39272U 13055H   13289.38095882  .52876323 -10743-5  30604-1 0  9994,2 39272 081.0206 296.2363 0089709 096.5198 267.4206 16.09920126  2492
3.0,GENERATED VIA SPACE-TRACK.ORG API,2004-08-15T23:41:47,18 SPCS,COSMOS 699 DEB,1974-103AS,EARTH,TEME,UTC,SGP4,1978-02-15T13:44:51.537408,15.95103818,0.0002622,64.9611,14.7103,326.9536,33.1417,0,U,8112,999,17814,0.0,0.00435071,0.0,6666.166,90.276,289.779,286.283,DEBRIS,SMALL,CIS,1974-12-24,TTMTR,1978-03-04,34034,10402530,0 COSMOS 699 DEB,1 08112U 74103 AS 78046.57281872  .00435071 +00000-0 +00000-0 0  9992,2 08112 064.9611 014.7103 0002622 326.9536 033.1417 15.95103818178144
3.0,GENERATED VIA SPACE-TRACK.ORG API,2004-08-16T23:15:23,18 SPCS,N-2 R/B(1),1981-076B,EARTH,TEME,UTC,SGP4,1981-08-23T06:39:13.452192,16.32662392,0.0074595,30.321,204.4406,329.1795,35.3707,0,U,12678,999,199,2.792e-06,0.06781961,7.287e-07,6563.535,88.199,234.361,136.44,ROCKET BODY,,,,,1981-08-24,34334,12274198,0 N-2 R/B(1),1 12678U 81076  B 81235.27723903  .06781961 +07287-5 +02792-4 0  9999,2 12678 030.3210 204.4406 0074595 329.1795 035.3707 16.32662392001995
3.0,GENERATED VIA SPACE-TRACK.ORG API,2019-05-06T06:48:16,18 SPCS,MICROSAT-R DEB,2019-006BW,EARTH,TEME,UTC,SGP4,2019-05-06T00:38:07.992096,16.17351169,0.0045121,95.9712,33.1528,228.6782,131.0622,0,U,44183,999,496,0.0046014,0.08626241,1.4807e-06,6604.89,89.034,256.557,196.953,DEBRIS,SMALL,IND,2019-01-24,SRI,2019-05-07,2462493,130586282,0 MICROSAT-R DEB,1 44183U 19006BW  19126.02648139  .08626241  14807-5  46014-2 0  9999,2 44183  95.9712  33.1528 0045121 228.6782 131.0622 16.17351169  4969
3.0,GENERATED VIA SPACE-TRACK.ORG API,2004-08-15T23:41:47,18 SPCS,DELTA 1 DEB,1975-004EC,EARTH,TEME,UTC,SGP4,1978-01-08T22:29:39.433344,13.75125229,0.0477936,98.8407,353.2103,357.3361,2.5215,0,U,9301,999,9696,0.0,0.00076625,0.0,7359.369,104.717,1332.965,629.503,DEBRIS,SMALL,US,1975-01-22,AFWTR,1979-01-04,34034,10447411,0 DELTA 1 DEB,1 09301U 75004 EC 78008.93726196  .00076625 +00000-0 +00000-0 0  9991,2 09301 098.8407 353.2103 0477936 357.3361 002.5215 13.75125229096964
3.0,GENERATED VIA SPACE-TRACK.ORG API,2024-03-05T03:29:10,18 SPCS,SPACEBEE-119,2022-026H,EARTH,TEME,UTC,SGP4,2024-03-02T03:05:49.975296,16.44523773,0.0009447,97.4637,81.5934,214.9453,145.1229,0,U,52015,999,10976,0.00051293,0.17375179,2.7401e-06,6531.933,87.563,159.969,147.628,PAYLOAD,SMALL,US,2022-03-15,KODAK,2024-03-05,4208633,250833589,0 SPACEBEE-119,1 52015U 22026H   24062.12905064  .17375179  27401-5  51293-3 0  9998,2 52015  97.4637  81.5934 0009447 214.9453 145.1229 16.44523773109762
3.0,GENERATED VIA SPACE-TRACK.ORG API,2004-05-28T19:02:02,18 SPCS,TITAN 3C TRANSTAGE DEB,1965-082AA,EARTH,TEME,UTC,SGP4,2002-05-03T20:20:36.629088,15.83901258,0.0025218,32.3103,356.3663,221.9212,139.9812,0,U,1663,999,86479,0.02833,0.08302249,0.0,6697.561,90.914,336.316,302.536,DEBRIS,MEDIUM,US,1965-10-15,AFETR,2002-05-04,6685,2683330,0 TITAN 3C TRANSTAGE DEB,1  1663U 65082AA  02123.84764617 +.08302249 +00000-0 +28330-1 0  9993,2  1663 032.3103 356.3663 0025218 221.9212 139.9812 15.83901258864798
3.0,GENERATED VIA SPACE-TRACK.ORG API,2005-06-09T11:44:05,18 SPCS,DIAMANT DEB,1967-014N,EARTH,TEME,UTC,SGP4,1991-09-25T03:56:27.482208,15.66818599,0.0068907,39.3864,187.5083,243.6496,115.7221,0,U,18928,999,51551,0.014818,0.0184673,0.0,6746.154,91.905,414.505,321.534,DEBRIS,SMALL,FR,1967-02-15,HGSTR,1991-09-30,145815,49518486,0 DIAMANT DEB,1 18928U 67014  N 91268.16420697  .01846730 +00000-0 +14818-1 0  9999,2 18928 039.3864 187.5083 0068907 243.6496 115.7221 15.66818599515513
3.0,GENERATED VIA SPACE-TRACK.ORG API,2020-12-31T02:56:27,18 SPCS,H-2A DEB,2018-084CK,EARTH,TEME,UTC,SGP4,2020-12-29T06:22:19.250112,15.89490094,0.0020156,97.7245,118.3305,331.1079,28.9074,0,U,46428,999,1,0.001,0.00294337,3.3812e-05,6681.848,90.595,317.181,290.245,DEBRIS,SMALL,JPN,2018-10-29,TNSTA,2020-12-29,2912965,168664031,0 H-2A DEB,1 46428U 18084CK  20364.26550058  .00294337  33812-4  10000-2 0  9993,2 46428  97.7245 118.3305 0020156 331.1079  28.9074 15.89490094    19
